CCSDS_OMM_VERS = 2.0
CREATION_DATE  = 
ORIGINATOR     = 

OBJECT_NAME    = STARLINK-36446
OBJECT_ID      = 2026-005J
CENTER_NAME    = EARTH
REF_FRAME      = TEME
TIME_SYSTEM    = UTC
MEAN_ELEMENT_THEORY = SGP/SGP4

EPOCH          = 2026-01-30T12:00:02.998944
MEAN_MOTION    = 15.59855285
ECCENTRICITY   = .0000909
INCLINATION    = 43.0005
RA_OF_ASC_NODE = 97.6856
ARG_OF_PERICENTER = 284.5316
MEAN_ANOMALY   = 286.3570

EPHEMERIS_TYPE = 0
CLASSIFICATION_TYPE = U
NORAD_CAT_ID   = 67412
ELEMENT_SET_NO = 999
REV_AT_EPOCH   = 404
BSTAR          = -.27692E-1
MEAN_MOTION_DOT = -.2006592E-1
MEAN_MOTION_DDOT = 0

CCSDS_OMM_VERS = 2.0
CREATION_DATE  = 
ORIGINATOR     = 

OBJECT_NAME    = STARLINK-36442
OBJECT_ID      = 2026-005K
CENTER_NAME    = EARTH
REF_FRAME      = TEME
TIME_SYSTEM    = UTC
MEAN_ELEMENT_THEORY = SGP/SGP4

EPOCH          = 2026-01-30T12:00:02.998944
MEAN_MOTION    = 15.59857771
ECCENTRICITY   = .0000983
INCLINATION    = 43.0002
RA_OF_ASC_NODE = 97.6800
ARG_OF_PERICENTER = 288.2122
MEAN_ANOMALY   = 284.5929

EPHEMERIS_TYPE = 0
CLASSIFICATION_TYPE = U
NORAD_CAT_ID   = 67413
ELEMENT_SET_NO = 999
REV_AT_EPOCH   = 404
BSTAR          = -.27783E-1
MEAN_MOTION_DOT = -.2012586E-1
MEAN_MOTION_DDOT = 0

CCSDS_OMM_VERS = 2.0
CREATION_DATE  = 
ORIGINATOR     = 

OBJECT_NAME    = STARLINK-36506
OBJECT_ID      = 2026-005L
CENTER_NAME    = EARTH
REF_FRAME      = TEME
TIME_SYSTEM    = UTC
MEAN_ELEMENT_THEORY = SGP/SGP4

EPOCH          = 2026-01-30T12:00:02.998944
MEAN_MOTION    = 15.59859772
ECCENTRICITY   = .0000976
INCLINATION    = 43.0005
RA_OF_ASC_NODE = 97.6754
ARG_OF_PERICENTER = 285.8162
MEAN_ANOMALY   = 288.9057

EPHEMERIS_TYPE = 0
CLASSIFICATION_TYPE = U
NORAD_CAT_ID   = 67414
ELEMENT_SET_NO = 999
REV_AT_EPOCH   = 404
BSTAR          = -.27825E-1
MEAN_MOTION_DOT = -.2015388E-1
MEAN_MOTION_DDOT = 0

CCSDS_OMM_VERS = 2.0
CREATION_DATE  = 
ORIGINATOR     = 

OBJECT_NAME    = STARLINK-36468
OBJECT_ID      = 2026-005M
CENTER_NAME    = EARTH
REF_FRAME      = TEME
TIME_SYSTEM    = UTC
MEAN_ELEMENT_THEORY = SGP/SGP4

EPOCH          = 2026-01-30T12:00:02.998944
MEAN_MOTION    = 15.59855455
ECCENTRICITY   = .0000887
INCLINATION    = 43.0006
RA_OF_ASC_NODE = 97.6707
ARG_OF_PERICENTER = 285.8939
MEAN_ANOMALY   = 290.7467

EPHEMERIS_TYPE = 0
CLASSIFICATION_TYPE = U
NORAD_CAT_ID   = 67415
ELEMENT_SET_NO = 999
REV_AT_EPOCH   = 399
BSTAR          = -.27708E-1
MEAN_MOTION_DOT = -.2007638E-1
MEAN_MOTION_DDOT = 0

CCSDS_OMM_VERS = 2.0
CREATION_DATE  = 
ORIGINATOR     = 

OBJECT_NAME    = STARLINK-36487
OBJECT_ID      = 2026-005N
CENTER_NAME    = EARTH
REF_FRAME      = TEME
TIME_SYSTEM    = UTC
MEAN_ELEMENT_THEORY = SGP/SGP4

EPOCH          = 2026-01-30T12:00:02.998944
MEAN_MOTION    = 15.59855085
ECCENTRICITY   = .0000955
INCLINATION    = 43.0007
RA_OF_ASC_NODE = 97.6656
ARG_OF_PERICENTER = 281.4063
MEAN_ANOMALY   = 297.1516

EPHEMERIS_TYPE = 0
CLASSIFICATION_TYPE = U
NORAD_CAT_ID   = 67416
ELEMENT_SET_NO = 999
REV_AT_EPOCH   = 404
BSTAR          = -.2769E-1
MEAN_MOTION_DOT = -.2006495E-1
MEAN_MOTION_DDOT = 0

CCSDS_OMM_VERS = 2.0
CREATION_DATE  = 
ORIGINATOR     = 

OBJECT_NAME    = STARLINK-36374
OBJECT_ID      = 2026-005P
CENTER_NAME    = EARTH
REF_FRAME      = TEME
TIME_SYSTEM    = UTC
MEAN_ELEMENT_THEORY = SGP/SGP4

EPOCH          = 2026-01-30T12:00:02.998944
MEAN_MOTION    = 15.59854297
ECCENTRICITY   = .0000911
INCLINATION    = 43.0005
RA_OF_ASC_NODE = 97.6612
ARG_OF_PERICENTER = 285.1871
MEAN_ANOMALY   = 295.2853

EPHEMERIS_TYPE = 0
CLASSIFICATION_TYPE = U
NORAD_CAT_ID   = 67417
ELEMENT_SET_NO = 999
REV_AT_EPOCH   = 404
BSTAR          = -.27626E-1
MEAN_MOTION_DOT = -.2002357E-1
MEAN_MOTION_DDOT = 0

CCSDS_OMM_VERS = 2.0
CREATION_DATE  = 
ORIGINATOR     = 

OBJECT_NAME    = STARLINK-36455
OBJECT_ID      = 2026-005Q
CENTER_NAME    = EARTH
REF_FRAME      = TEME
TIME_SYSTEM    = UTC
MEAN_ELEMENT_THEORY = SGP/SGP4

EPOCH          = 2026-01-30T12:00:02.998944
MEAN_MOTION    = 15.59852472
ECCENTRICITY   = .0001044
INCLINATION    = 43.0006
RA_OF_ASC_NODE = 97.6560
ARG_OF_PERICENTER = 274.1426
MEAN_ANOMALY   = 308.2477

EPHEMERIS_TYPE = 0
CLASSIFICATION_TYPE = U
NORAD_CAT_ID   = 67418
ELEMENT_SET_NO = 999
REV_AT_EPOCH   = 404
BSTAR          = -.27618E-1
MEAN_MOTION_DOT = -.2001812E-1
MEAN_MOTION_DDOT = 0

CCSDS_OMM_VERS = 2.0
CREATION_DATE  = 
ORIGINATOR     = 

OBJECT_NAME    = STARLINK-36424
OBJECT_ID      = 2026-005R
CENTER_NAME    = EARTH
REF_FRAME      = TEME
TIME_SYSTEM    = UTC
MEAN_ELEMENT_THEORY = SGP/SGP4

EPOCH          = 2026-01-30T12:00:02.998944
MEAN_MOTION    = 15.59852816
ECCENTRICITY   = .0001006
INCLINATION    = 43.0004
RA_OF_ASC_NODE = 97.6512
ARG_OF_PERICENTER = 280.0106
MEAN_ANOMALY   = 304.2961

EPHEMERIS_TYPE = 0
CLASSIFICATION_TYPE = U
NORAD_CAT_ID   = 67419
ELEMENT_SET_NO = 999
REV_AT_EPOCH   = 404
BSTAR          = -.27681E-1
MEAN_MOTION_DOT = -.2005814E-1
MEAN_MOTION_DDOT = 0

CCSDS_OMM_VERS = 2.0
CREATION_DATE  = 
ORIGINATOR     = 

OBJECT_NAME    = STARLINK-35564
OBJECT_ID      = 2026-005S
CENTER_NAME    = EARTH
REF_FRAME      = TEME
TIME_SYSTEM    = UTC
MEAN_ELEMENT_THEORY = SGP/SGP4

EPOCH          = 2026-01-30T12:00:02.998944
MEAN_MOTION    = 15.59853555
ECCENTRICITY   = .0000904
INCLINATION    = 43.0005
RA_OF_ASC_NODE = 97.6466
ARG_OF_PERICENTER = 286.1784
MEAN_ANOMALY   = 300.0452

EPHEMERIS_TYPE = 0
CLASSIFICATION_TYPE = U
NORAD_CAT_ID   = 67420
ELEMENT_SET_NO = 999
REV_AT_EPOCH   = 393
BSTAR          = -.27635E-1
MEAN_MOTION_DOT = -.2002839E-1
MEAN_MOTION_DDOT = 0

CCSDS_OMM_VERS = 2.0
CREATION_DATE  = 
ORIGINATOR     = 

OBJECT_NAME    = STARLINK-36431
OBJECT_ID      = 2026-005T
CENTER_NAME    = EARTH
REF_FRAME      = TEME
TIME_SYSTEM    = UTC
MEAN_ELEMENT_THEORY = SGP/SGP4

EPOCH          = 2026-01-30T12:00:02.998944
MEAN_MOTION    = 15.59854284
ECCENTRICITY   = .0001006
INCLINATION    = 43.0004
RA_OF_ASC_NODE = 97.6420
ARG_OF_PERICENTER = 276.1718
MEAN_ANOMALY   = 311.9682

EPHEMERIS_TYPE = 0
CLASSIFICATION_TYPE = U
NORAD_CAT_ID   = 67421
ELEMENT_SET_NO = 999
REV_AT_EPOCH   = 383
BSTAR          = -.27653E-1
MEAN_MOTION_DOT = -.2004093E-1
MEAN_MOTION_DDOT = 0

CCSDS_OMM_VERS = 2.0
CREATION_DATE  = 
ORIGINATOR     = 

OBJECT_NAME    = STARLINK-36418
OBJECT_ID      = 2026-005U
CENTER_NAME    = EARTH
REF_FRAME      = TEME
TIME_SYSTEM    = UTC
MEAN_ELEMENT_THEORY = SGP/SGP4

EPOCH          = 2026-01-30T12:00:02.998944
MEAN_MOTION    = 15.59854915
ECCENTRICITY   = .0001004
INCLINATION    = 43.0005
RA_OF_ASC_NODE = 97.6370
ARG_OF_PERICENTER = 286.9211
MEAN_ANOMALY   = 303.1392

EPHEMERIS_TYPE = 0
CLASSIFICATION_TYPE = U
NORAD_CAT_ID   = 67422
ELEMENT_SET_NO = 999
REV_AT_EPOCH   = 399
BSTAR          = -.27731E-1
MEAN_MOTION_DOT = -.2009083E-1
MEAN_MOTION_DDOT = 0

CCSDS_OMM_VERS = 2.0
CREATION_DATE  = 
ORIGINATOR     = 

OBJECT_NAME    = STARLINK-36465
OBJECT_ID      = 2026-005V
CENTER_NAME    = EARTH
REF_FRAME      = TEME
TIME_SYSTEM    = UTC
MEAN_ELEMENT_THEORY = SGP/SGP4

EPOCH          = 2026-01-30T12:00:02.998944
MEAN_MOTION    = 15.59848369
ECCENTRICITY   = .0000937
INCLINATION    = 43.0005
RA_OF_ASC_NODE = 97.6326
ARG_OF_PERICENTER = 283.7047
MEAN_ANOMALY   = 308.2706

EPHEMERIS_TYPE = 0
CLASSIFICATION_TYPE = U
NORAD_CAT_ID   = 67423
ELEMENT_SET_NO = 999
REV_AT_EPOCH   = 378
BSTAR          = -.27486E-1
MEAN_MOTION_DOT = -.1993055E-1
MEAN_MOTION_DDOT = 0

