STARLINK-36446          
1 67412U 26005J   26030.50003471 -.02006592  00000+0 -27692-1 0  9996
2 67412  43.0005  97.6856 0000909 284.5316 286.3570 15.59855285  4044
STARLINK-36442          
1 67413U 26005K   26030.50003471 -.02012586  00000+0 -27783-1 0  9998
2 67413  43.0002  97.6800 0000983 288.2122 284.5929 15.59857771  4049
STARLINK-36506          
1 67414U 26005L   26030.50003471 -.02015388  00000+0 -27825-1 0  9999
2 67414  43.0005  97.6754 0000976 285.8162 288.9057 15.59859772  4043
STARLINK-36468          
1 67415U 26005M   26030.50003471 -.02007638  00000+0 -27708-1 0  9999
2 67415  43.0006  97.6707 0000887 285.8939 290.7467 15.59855455  3999
STARLINK-36487          
1 67416U 26005N   26030.50003471 -.02006495  00000+0 -27690-1 0  9990
2 67416  43.0007  97.6656 0000955 281.4063 297.1516 15.59855085  4042
STARLINK-36374          
1 67417U 26005P   26030.50003471 -.02002357  00000+0 -27626-1 0  9993
2 67417  43.0005  97.6612 0000911 285.1871 295.2853 15.59854297  4040
STARLINK-36455          
1 67418U 26005Q   26030.50003471 -.02001812  00000+0 -27618-1 0  9990
2 67418  43.0006  97.6560 0001044 274.1426 308.2477 15.59852472  4046
STARLINK-36424          
1 67419U 26005R   26030.50003471 -.02005814  00000+0 -27681-1 0  9997
2 67419  43.0004  97.6512 0001006 280.0106 304.2961 15.59852816  4047
STARLINK-35564          
1 67420U 26005S   26030.50003471 -.02002839  00000+0 -27635-1 0  9992
2 67420  43.0005  97.6466 0000904 286.1784 300.0452 15.59853555  3930
STARLINK-36431          
1 67421U 26005T   26030.50003471 -.02004093  00000+0 -27653-1 0  9997
2 67421  43.0004  97.6420 0001006 276.1718 311.9682 15.59854284  3835
STARLINK-36418          
1 67422U 26005U   26030.50003471 -.02009083  00000+0 -27731-1 0  9999
2 67422  43.0005  97.6370 0001004 286.9211 303.1392 15.59854915  3995
STARLINK-36465          
1 67423U 26005V   26030.50003471 -.01993055  00000+0 -27486-1 0  9997
2 67423  43.0005  97.6326 0000937 283.7047 308.2706 15.59848369  3781
